*******************************************************************************
Ephemeris / WWW_USER Mon Mar 24 09:36:43 2025 Pasadena, USA      / Horizons    
*******************************************************************************
Target body name: 468861 (2013 LU28)              {source: JPL#36}
Center body name: Earth (399)                     {source: DE441}
Center-site name: Mauna Kea
*******************************************************************************
Start time      : A.D. 2018-Nov-29 03:51:00.0000 UT      
Stop  time      : A.D. 2018-Nov-29 16:29:00.0000 UT      
Step-size       : 1 minutes
*******************************************************************************
Target pole/equ : undefined
Target radii    : undefined                                                    
Center geodetic : 204.5278, 19.8260847, 4.21024   {E-lon(deg),Lat(deg),Alt(km)}
Center cylindric: 204.5278, 6006.35451, 2151.0229 {E-lon(deg),Dxy(km),Dz(km)}
Center pole/equ : ITRF93                          {East-longitude positive}
Center radii    : 6378.137, 6378.137, 6356.752 km {Equator_a, b, pole_c}       
Target primary  : Sun
Vis. interferer : MOON (R_eq= 1737.400) km        {source: DE441}
Rel. light bend : Sun                             {source: DE441}
Rel. lght bnd GM: 1.3271E+11 km^3/s^2                                          
Small-body perts: Yes                             {source: SB441-N16}
Atmos refraction: NO (AIRLESS)
RA format       : HMS
Time format     : CAL 
Calendar mode   : Mixed Julian/Gregorian
RTS-only print  : NO       
EOP file        : eop.250321.p250617                                           
EOP coverage    : DATA-BASED 1962-JAN-20 TO 2025-MAR-21. PREDICTS-> 2025-JUN-16
Units conversion: 1 au= 149597870.700 km, c= 299792.458 km/s, 1 day= 86400.0 s 
Table cut-offs 1: Elevation (-90.0deg=NO ),Airmass (>38.000=NO), Daylight (YES)
Table cut-offs 2: Solar elongation (  0.0,180.0=NO ),Local Hour Angle( 0.0=NO )
Table cut-offs 3: RA/DEC angular rate (     0.0=NO )                           
*******************************************************************************
Initial IAU76/J2000 heliocentric ecliptic osculating elements (au, days, deg.):
  EPOCH=  2459491.5 ! 2021-Oct-04.00 (TDB)         Residual RMS= .14077        
   EC= .9545524767334098   QR= 8.741840911970645   TP= 2460480.7801673855      
   OM= 275.9923561772391   W=  152.9171912923278   IN= 125.3473013584344       
  Equivalent ICRF heliocentric cartesian coordinates (au, au/d):
   X=-6.020062670108302E+00  Y=-1.182282064265113E+00  Z= 8.330249486138040E+00
  VX= 2.086988006100027E-03 VY= 7.079392581348984E-03 VZ=-1.092497303529149E-03
Asteroid physical parameters (km, seconds, rotational period in hours):        
   GM= n.a.                RAD= n.a.               ROTPER= n.a.                
   H= 8.24                 G= .150                 B-V= n.a.                   
                           ALBEDO= n.a.            STYP= n.a.                  
*******************************************************************************
 Date__(UT)__HR:MN     R.A._________(ICRF)_________DEC
******************************************************
$$SOE
 2018-Nov-29 03:51 C   15 15 30.915114 +34 20 42.42975
 2018-Nov-29 03:52 C   15 15 30.925281 +34 20 42.47261
 2018-Nov-29 03:53 C   15 15 30.935449 +34 20 42.51547
 2018-Nov-29 03:54 C   15 15 30.945618 +34 20 42.55833
 2018-Nov-29 03:55 C   15 15 30.955788 +34 20 42.60120
 2018-Nov-29 03:56 C   15 15 30.965958 +34 20 42.64407
 2018-Nov-29 03:57 C   15 15 30.976130 +34 20 42.68694
 2018-Nov-29 03:58 C   15 15 30.986302 +34 20 42.72982
 2018-Nov-29 03:59 C   15 15 30.996475 +34 20 42.77270
 2018-Nov-29 04:00 C   15 15 31.006649 +34 20 42.81558
 2018-Nov-29 04:01 C   15 15 31.016824 +34 20 42.85847
 2018-Nov-29 04:02 C   15 15 31.026999 +34 20 42.90135
 2018-Nov-29 04:03 C   15 15 31.037176 +34 20 42.94425
 2018-Nov-29 04:04 C   15 15 31.047353 +34 20 42.98714
 2018-Nov-29 04:05 N   15 15 31.057531 +34 20 43.03004
 2018-Nov-29 04:06 N   15 15 31.067710 +34 20 43.07294
 2018-Nov-29 04:07 N   15 15 31.077889 +34 20 43.11584
 2018-Nov-29 04:08 N   15 15 31.088070 +34 20 43.15875
 2018-Nov-29 04:09 N   15 15 31.098251 +34 20 43.20166
 2018-Nov-29 04:10 N   15 15 31.108433 +34 20 43.24458
 2018-Nov-29 04:11 N   15 15 31.118616 +34 20 43.28750
 2018-Nov-29 04:12 N   15 15 31.128800 +34 20 43.33042
 2018-Nov-29 04:13 N   15 15 31.138985 +34 20 43.37334
 2018-Nov-29 04:14 N   15 15 31.149170 +34 20 43.41627
 2018-Nov-29 04:15 N   15 15 31.159356 +34 20 43.45920
 2018-Nov-29 04:16 N   15 15 31.169543 +34 20 43.50214
 2018-Nov-29 04:17 N   15 15 31.179731 +34 20 43.54507
 2018-Nov-29 04:18 Ns  15 15 31.189920 +34 20 43.58802
 2018-Nov-29 04:19 N   15 15 31.200109 +34 20 43.63096
 2018-Nov-29 04:20 N   15 15 31.210300 +34 20 43.67391
 2018-Nov-29 04:21 N   15 15 31.220491 +34 20 43.71686
 2018-Nov-29 04:22 N   15 15 31.230683 +34 20 43.75982
 2018-Nov-29 04:23 N   15 15 31.240875 +34 20 43.80278
 2018-Nov-29 04:24 N   15 15 31.251069 +34 20 43.84574
 2018-Nov-29 04:25 N   15 15 31.261263 +34 20 43.88871
 2018-Nov-29 04:26 N   15 15 31.271458 +34 20 43.93168
 2018-Nov-29 04:27 N   15 15 31.281654 +34 20 43.97466
 2018-Nov-29 04:28 N   15 15 31.291851 +34 20 44.01763
 2018-Nov-29 04:29 N   15 15 31.302049 +34 20 44.06062
 2018-Nov-29 04:30 N   15 15 31.312247 +34 20 44.10360
 2018-Nov-29 04:31 N   15 15 31.322446 +34 20 44.14659
 2018-Nov-29 04:32 N   15 15 31.332646 +34 20 44.18959
 2018-Nov-29 04:33 A   15 15 31.342847 +34 20 44.23258
 2018-Nov-29 04:34 A   15 15 31.353048 +34 20 44.27559
 2018-Nov-29 04:35 A   15 15 31.363250 +34 20 44.31859
 2018-Nov-29 04:36 A   15 15 31.373454 +34 20 44.36160
 2018-Nov-29 04:37 A   15 15 31.383657 +34 20 44.40462
 2018-Nov-29 04:38 A   15 15 31.393862 +34 20 44.44763
 2018-Nov-29 04:39 A   15 15 31.404068 +34 20 44.49066
 2018-Nov-29 04:40 A   15 15 31.414274 +34 20 44.53368
 2018-Nov-29 04:41 A   15 15 31.424481 +34 20 44.57671
 2018-Nov-29 04:42 A   15 15 31.434689 +34 20 44.61975
 2018-Nov-29 04:43 A   15 15 31.444897 +34 20 44.66278
 2018-Nov-29 04:44 A   15 15 31.455106 +34 20 44.70583
 2018-Nov-29 04:45 A   15 15 31.465317 +34 20 44.74887
 2018-Nov-29 04:46 A   15 15 31.475527 +34 20 44.79192
 2018-Nov-29 04:47 A   15 15 31.485739 +34 20 44.83498
 2018-Nov-29 04:48 A   15 15 31.495951 +34 20 44.87804
 2018-Nov-29 04:49 A   15 15 31.506165 +34 20 44.92110
 2018-Nov-29 04:50 A   15 15 31.516379 +34 20 44.96417
 2018-Nov-29 04:51 A   15 15 31.526593 +34 20 45.00724
 2018-Nov-29 04:52 A   15 15 31.536809 +34 20 45.05032
 2018-Nov-29 04:53 A   15 15 31.547025 +34 20 45.09340
 2018-Nov-29 04:54 A   15 15 31.557242 +34 20 45.13649
 2018-Nov-29 04:55 A   15 15 31.567460 +34 20 45.17958
 2018-Nov-29 04:56 A   15 15 31.577678 +34 20 45.22267
 2018-Nov-29 04:57 A   15 15 31.587898 +34 20 45.26577
 2018-Nov-29 04:58 A   15 15 31.598118 +34 20 45.30887
 2018-Nov-29 04:59     15 15 31.608339 +34 20 45.35198
 2018-Nov-29 05:00     15 15 31.618560 +34 20 45.39510
 2018-Nov-29 05:01     15 15 31.628782 +34 20 45.43821
 2018-Nov-29 05:02     15 15 31.639005 +34 20 45.48133
 2018-Nov-29 05:03     15 15 31.649229 +34 20 45.52446
 2018-Nov-29 05:04     15 15 31.659454 +34 20 45.56759
 2018-Nov-29 05:05     15 15 31.669679 +34 20 45.61073
 2018-Nov-29 05:06     15 15 31.679905 +34 20 45.65387
 2018-Nov-29 05:07     15 15 31.690132 +34 20 45.69701
 2018-Nov-29 05:08     15 15 31.700359 +34 20 45.74016
 2018-Nov-29 05:09     15 15 31.710587 +34 20 45.78332
 2018-Nov-29 05:10     15 15 31.720816 +34 20 45.82648
 2018-Nov-29 05:11     15 15 31.731046 +34 20 45.86964
 2018-Nov-29 05:12     15 15 31.741276 +34 20 45.91281
 2018-Nov-29 05:13     15 15 31.751507 +34 20 45.95599
 2018-Nov-29 05:14     15 15 31.761739 +34 20 45.99917
 2018-Nov-29 05:15     15 15 31.771972 +34 20 46.04235
 2018-Nov-29 05:16     15 15 31.782205 +34 20 46.08554
 2018-Nov-29 05:17     15 15 31.792439 +34 20 46.12873
 2018-Nov-29 05:18     15 15 31.802674 +34 20 46.17193
 2018-Nov-29 05:19     15 15 31.812909 +34 20 46.21514
 2018-Nov-29 05:20     15 15 31.823145 +34 20 46.25835
 2018-Nov-29 05:21     15 15 31.833382 +34 20 46.30156
 2018-Nov-29 05:22     15 15 31.843620 +34 20 46.34478
 2018-Nov-29 05:23     15 15 31.853858 +34 20 46.38800
 2018-Nov-29 05:24     15 15 31.864097 +34 20 46.43123
 2018-Nov-29 05:25     15 15 31.874336 +34 20 46.47447
 2018-Nov-29 05:26     15 15 31.884577 +34 20 46.51771
 2018-Nov-29 05:27     15 15 31.894818 +34 20 46.56095
 2018-Nov-29 05:28     15 15 31.905059 +34 20 46.60420
 2018-Nov-29 05:29     15 15 31.915302 +34 20 46.64746
 2018-Nov-29 05:30     15 15 31.925545 +34 20 46.69072
 2018-Nov-29 05:31     15 15 31.935789 +34 20 46.73398
 2018-Nov-29 05:32     15 15 31.946033 +34 20 46.77726
 2018-Nov-29 05:33     15 15 31.956278 +34 20 46.82053
 2018-Nov-29 05:34     15 15 31.966524 +34 20 46.86381
 2018-Nov-29 05:35     15 15 31.976771 +34 20 46.90710
 2018-Nov-29 05:36     15 15 31.987018 +34 20 46.95039
 2018-Nov-29 05:37     15 15 31.997266 +34 20 46.99369
 2018-Nov-29 05:38     15 15 32.007514 +34 20 47.03700
 2018-Nov-29 05:39     15 15 32.017763 +34 20 47.08030
 2018-Nov-29 05:40     15 15 32.028013 +34 20 47.12362
 2018-Nov-29 05:41     15 15 32.038264 +34 20 47.16694
 2018-Nov-29 05:42     15 15 32.048515 +34 20 47.21026
 2018-Nov-29 05:43     15 15 32.058767 +34 20 47.25360
 2018-Nov-29 05:44     15 15 32.069019 +34 20 47.29693
 2018-Nov-29 05:45     15 15 32.079272 +34 20 47.34027
 2018-Nov-29 05:46     15 15 32.089526 +34 20 47.38362
 2018-Nov-29 05:47     15 15 32.099781 +34 20 47.42697
 2018-Nov-29 05:48     15 15 32.110036 +34 20 47.47033
 2018-Nov-29 05:49     15 15 32.120291 +34 20 47.51370
 2018-Nov-29 05:50     15 15 32.130548 +34 20 47.55707
 2018-Nov-29 05:51     15 15 32.140805 +34 20 47.60044
 2018-Nov-29 05:52     15 15 32.151062 +34 20 47.64383
 2018-Nov-29 05:53     15 15 32.161321 +34 20 47.68721
